SL-12 R/B(2)            
1 15772U 85042D   26164.65381589  .00000051  00000+0  44317-4 0  9993
2 15772  71.1080 244.9813 0036135 333.1239 133.4416 14.22005249128039
SL-14 R/B               
1 15945U 85069B   26164.87084660  .00000404  00000+0  42792-4 0  9995
2 15945  82.5268 294.4849 0017567 230.8271 129.1386 14.86513255187125
SL-16 R/B               
1 16182U 85097B   26164.81699169 -.00000245  00000+0 -98914-4 0  9992
2 16182  71.0035 298.1734 0005445 118.3795 350.6477 14.16610900100845
SL-14 R/B               
1 16496U 86006B   26164.75417406  .00000561  00000+0  56952-4 0  9991
2 16496  82.5262 169.3440 0075170 315.0610  44.4536 14.86942577163487
COSMOS 1743             
1 16719U 86034A   26164.50633057  .00045802  00000+0  43582-3 0  9996
2 16719  82.5268 332.6452 0003767 288.5070  71.5780 15.66631400195213
SL-14 R/B               
1 16792U 86046B   26164.78531938  .00000380  00000+0  40949-4 0  9992
2 16792  82.4816 349.3903 0021568 270.5172  89.3573 14.85669004140679
SL-14 R/B               
1 16882U 86055B   26164.71015056  .00000375  00000+0  40290-4 0  9996
2 16882  82.5205  36.4021 0019379  19.0002  41.0362 14.85721024133621
AJISAI (EGS)            
1 16908U 86061A   26164.84242257 -.00000098  00000+0 -83658-6 0  9992
2 16908  50.0064 157.6802 0011230 172.1295 255.2220 12.44516810479970
SL-14 R/B               
1 17567U 87024B   26164.64917223  .00000370  00000+0  39278-4 0  9992
2 17567  82.5281   2.5765 0016954 305.9154  54.0488 14.86211203102382
COSMOS 1833             
1 17589U 87027A   26164.63959704  .00000312  00000+0  19231-3 0  9990
2 17589  70.9172 124.3250 0022712  61.0366 299.3028 14.13047341 23872
SL-16 R/B               
1 17590U 87027B   26164.82808091 -.00000148  00000+0 -49694-4 0  9991
2 17590  71.0034  73.9070 0006396 316.1608  43.9008 14.17172600 28962
SL-14 R/B               
1 17912U 87038B   26164.82818593  .00000312  00000+0  33331-4 0  9991
2 17912  82.5010 206.2363 0018585 202.5373 157.5029 14.85443380 93505
COSMOS 1844             
1 17973U 87041A   26164.50071198 -.00000161  00000+0 -58438-4 0  9998
2 17973  70.8974 192.0836 0033069 240.9035 118.8775 14.14568796 17137
SL-14 R/B               
1 18153U 87055B   26164.72093954  .00000380  00000+0  40752-4 0  9993
2 18153  82.4995 258.4964 0021897  58.5013 301.8339 14.85708984 84197
COSMOS 1867             
1 18187U 87060A   26164.84976271 -.00000029  00000+0  26673-4 0  9998
2 18187  65.0116  37.4055 0016443 282.0907  77.8334 14.31515481 33704
SL-14 R/B               
1 18749U 88001B   26164.85740958  .00000390  00000+0  42224-4 0  9990
2 18749  82.5131 104.9061 0016476 281.6371  78.2996 14.85607564 56305
COSMOS 1933             
1 18958U 88020A   26164.47958122  .00003212  00000+0  15346-3 0  9995
2 18958  82.5115 156.1064 0003064 199.9562 160.1553 15.18690741 64768
SL-3 R/B                
1 19046U 88032B   26164.88754681  .00004296  00000+0  19661-3 0  9993
2 19046  97.5247 147.9316 0023696 257.3699 102.4886 15.20818407 66720
SL-16 R/B               
1 19120U 88039B   26164.59775009 -.00000119  00000+0 -33505-4 0  9994
2 19120  71.0141 225.7482 0022478 198.4699 161.5613 14.19629506971999
COSMOS 1953             
1 19210U 88050A   26164.74857119  .00007812  00000+0  26791-3 0  9990
2 19210  82.5086  61.5019 0011913 136.8086 223.4091 15.29934125 52462
SL-8 R/B                
1 19257U 88053B   26164.81728522  .00000154  00000+0  58194-4 0  9992
2 19257  74.0479 295.2692 0019169  91.8353  19.6817 14.38966270990429
COSMOS 1975             
1 19573U 88093A   26164.88277575  .00007546  00000+0  26406-3 0  9993
2 19573  82.5195  21.0265 0010982 182.9263 177.1915 15.29288119 34109
SL-14 R/B               
1 19574U 88093B   26164.84791895  .00000420  00000+0  45371-4 0  9993
2 19574  82.5309 311.7799 0022164  80.7390  33.7047 14.85739586 15291
SL-16 R/B               
1 19650U 88102B   26164.82670081 -.00000242  00000+0 -97984-4 0  9991
2 19650  71.0002 309.2103 0015945 230.1237 129.8485 14.16165252940501
INTERCOSMOS 24          
1 20261U 89080A   26164.68076440  .00000897  00000+0  25483-3 0  9998
2 20261  82.6068  41.9264 1188390  70.0341 302.4635 12.59656829678887
SL-14 R/B               
1 20262U 89080C   26164.88244522  .00000309  00000+0  92412-4 0  9994
2 20262  82.5929 111.4307 1228922 324.9648  27.6224 12.50569021672175
DELTA 1 R/B             
1 20323U 89089B   26164.56370762  .00000327  00000+0  89381-4 0  9993
2 20323  97.0637 356.7018 0068913 178.3878 181.7555 14.50729331909637
ARIANE 40 R/B           
1 20443U 90005H   26164.77874080  .00000217  00000+0  82481-4 0  9993
2 20443  98.2960 222.5006 0008795 276.2463  83.7723 14.39925687906633
DELTA 2 R/B(1)          
1 20453U 90008B   26164.62635299  .00088351  00000+0  66615-3 0  9993
2 20453  35.6007 259.4711 0065615  80.4623 280.3524 15.68298526941147
COSMOS 2058             
1 20465U 90010A   26164.82651351  .00003980  00000+0  23006-3 0  9990
2 20465  82.4667 312.6689 0009615  12.8543 347.2931 15.11991749956760
SL-14 R/B               
1 20466U 90010B   26164.52594176  .00000366  00000+0  41352-4 0  9999
2 20466  82.5016 177.3834 0019411 348.6604  11.4171 14.83644167942691
